STARLINK-32665          
1 62203U 24229M   26038.66668981  .00033792  00000+0  12328-2 0  9992
2 62203  43.0028  80.2788 0001087 265.7443 309.6142 15.27555593  5829
STARLINK-32664          
1 62204U 24229N   26037.19898849  .00044400  00000+0  16013-2 0  9991
2 62204  43.0023  88.6962 0001519 284.6666  75.4018 15.27825926 65745
STARLINK-32660          
1 62205U 24229P   26038.47175244  .00032841  00000+0  11967-2 0  9990
2 62205  43.0039  67.1780 0001763 273.4623  86.6027 15.27606315 66107
STARLINK-32448          
1 62206U 24229Q   26038.47110404  .00036397  00000+0  13248-2 0  9992
2 62206  42.9983  81.0390 0001439 263.7117  96.3571 15.27600735 65949
STARLINK-32430          
1 62207U 24229R   26038.44347872  .00035224  00000+0  12814-2 0  9997
2 62207  43.0014  78.2451 0001357 275.7091  84.3606 15.27632843 65970
STARLINK-32675          
1 62208U 24229S   26038.49294671  .00032149  00000+0  11722-2 0  9991
2 62208  43.0034  81.2077 0001598 272.9177  87.1491 15.27593243 65942
STARLINK-32671          
1 62209U 24229T   26038.46354103  .00039225  00000+0  14266-2 0  9994
2 62209  42.9982  81.8392 0003164 236.1729 123.8822 15.27595649 65932
STARLINK-32670          
1 62210U 24229U   26038.48525029  .00047866  00000+0  17344-2 0  9995
2 62210  43.0005  81.1521 0001772 279.6037  80.4615 15.27641858 65949
STARLINK-32642          
1 62211U 24229V   26038.47881427  .00037782  00000+0  13747-2 0  9991
2 62211  42.9979  81.1026 0001600 276.7607  83.3062 15.27597260 65944
STARLINK-32668          
1 62212U 24229W   26038.12039334  .00028291  00000+0  10324-2 0  9999
2 62212  42.9914  80.1124 0002152 123.3934 236.7124 15.27619439 65929
STARLINK-32669          
1 62213U 24229X   26038.45325979  .00030577  00000+0  11154-2 0  9991
2 62213  43.0009  81.7637 0001852 266.1735  93.8905 15.27598666 65932
STARLINK-32666          
1 62214U 24229Y   26038.45968887  .00032202  00000+0  11740-2 0  9991
2 62214  42.9998  81.8108 0001363 253.2425 106.8277 15.27597410 65935
STARLINK-32662          
1 62215U 24229Z   26038.18400988  .00030756  00000+0  11221-2 0  9991
2 62215  43.0004  83.1845 0001103 242.9489 117.1250 15.27593892 65897
STARLINK-11394 [DTC]    
1 62218U 24231A   26038.84341567  .00260518  00000+0  20869-2 0  9996
2 62218  53.1574 248.4092 0000991  49.1460 310.9643 15.69727259 68720
STARLINK-11490 [DTC]    
1 62219U 24231B   26038.91197739  .00155737  00000+0  12637-2 0  9995
2 62219  53.1576 248.1302 0002197 158.3100 201.8011 15.69759907 68731
STARLINK-11466 [DTC]    
1 62220U 24231C   26038.92179433  .00173655  00000+0  14062-2 0  9992
2 62220  53.1576 248.1939 0001261  46.5645 313.5478 15.69747846 68739
STARLINK-11468 [DTC]    
1 62221U 24231D   26038.86793251  .00207862  00000+0  16774-2 0  9996
2 62221  53.1578 248.5694 0000702  93.5042 266.6056 15.69717226 68724
STARLINK-11488 [DTC]    
1 62222U 24231E   26038.85321818  .00164967  00000+0  13380-2 0  9990
2 62222  53.1578 248.4703 0000777  61.1392 298.9704 15.69738975 68728
STARLINK-11483 [DTC]    
1 62223U 24231F   26038.88255261  .00191638  00000+0  15501-2 0  9994
2 62223  53.1584 247.9261 0002633  21.3127 338.8000 15.69712342 68730
STARLINK-11492 [DTC]    
1 62224U 24231G   26038.92669882  .00145687  00000+0  11850-2 0  9994
2 62224  53.1568 248.2379 0000839 100.7943 259.3170 15.69736875 68733
STARLINK-11471 [DTC]    
1 62225U 24231H   26038.95112395  .00127200  00000+0  10375-2 0  9992
2 62225  53.1566 247.6622 0000468  81.1864 278.9207 15.69738558 68747
STARLINK-11475 [DTC]    
1 62226U 24231J   26038.95603106  .00246324  00000+0  19759-2 0  9992
2 62226  53.1570 247.6817 0001392  40.1080 320.0041 15.69738339 68743
STARLINK-11469 [DTC]    
1 62227U 24231K   26038.90216775  .00213058  00000+0  17138-2 0  9997
2 62227  53.1575 248.0600 0001183  50.9724 309.1399 15.69778437 68732
STARLINK-11476 [DTC]    
1 62228U 24231L   26038.87764548  .00221252  00000+0  17832-2 0  9996
2 62228  53.1581 247.8998 0001059  84.5130 275.6009 15.69703965 68743
STARLINK-11485 [DTC]    
1 62229U 24231M   26038.96093618  .00192938  00000+0  15599-2 0  9996
2 62229  53.1574 247.7125 0001190  40.7750 319.3357 15.69720469 68745
STARLINK-11481 [DTC]    
1 62230U 24231N   26038.93650429  .00130226  00000+0  10602-2 0  9996
2 62230  53.1567 248.2835 0001427 142.4495 217.6623 15.69772269 68732
STARLINK-32650          
1 62231U 24231P   26038.17344095  .00042582  00000+0  14411-2 0  9991
2 62231  53.1604   1.5560 0001339  92.4476 267.6678 15.30211737 67094
STARLINK-32636          
1 62232U 24231Q   26038.26396044  .00040681  00000+0  13768-2 0  9995
2 62232  53.1604   0.7054 0001387  87.1835 272.9324 15.30230262 67111
STARLINK-32643          
1 62233U 24231R   26038.28662330  .00055441  00000+0  18677-2 0  9996
2 62233  53.1597 348.0616 0001212  93.9546 266.1593 15.30240753 67283
STARLINK-32652          
1 62234U 24231S   26038.15655423  .00041417  00000+0  14020-2 0  9994
2 62234  53.1641   1.4505 0001800  77.0248 283.0954 15.30216173 67082
