OBJECT_NAME,OBJECT_ID,EPOCH,MEAN_MOTION,ECCENTRICITY,INCLINATION,RA_OF_ASC_NODE,ARG_OF_PERICENTER,MEAN_ANOMALY,EPHEMERIS_TYPE,CLASSIFICATION_TYPE,NORAD_CAT_ID,ELEMENT_SET_NO,REV_AT_EPOCH,BSTAR,MEAN_MOTION_DOT,MEAN_MOTION_DDOT
STARLINK-32665,2024-229M,2026-02-07T16:00:01.999584,15.27555593,.00010874,43.0028,80.2788,265.7443,309.6142,0,U,62203,999,582,.12328101E-2,.33792E-3,0
STARLINK-32664,2024-229N,2026-02-06T04:46:32.605536,15.27825926,.00015195,43.0023,88.6962,284.6666,75.4018,0,U,62204,999,6574,.16012725E-2,.444E-3,0
STARLINK-32660,2024-229P,2026-02-07T11:19:19.410816,15.27606315,.0001763,43.0039,67.1780,273.4623,86.6027,0,U,62205,999,6610,.11966781E-2,.32841E-3,0
STARLINK-32448,2024-229Q,2026-02-07T11:18:23.389056,15.27600735,.00014392,42.9983,81.0390,263.7117,96.3571,0,U,62206,999,6594,.1324787E-2,.36397E-3,0
STARLINK-32430,2024-229R,2026-02-07T10:38:36.561408,15.27632843,.00013573,43.0014,78.2451,275.7091,84.3606,0,U,62207,999,6597,.12813875E-2,.35224E-3,0
STARLINK-32675,2024-229S,2026-02-07T11:49:50.595744,15.27593243,.00015988,43.0034,81.2077,272.9177,87.1491,0,U,62208,999,6594,.11722406E-2,.32149E-3,0
STARLINK-32671,2024-229T,2026-02-07T11:07:29.944992,15.27595649,.0003164,42.9982,81.8392,236.1729,123.8822,0,U,62209,999,6593,.14265729E-2,.39225E-3,0
STARLINK-32670,2024-229U,2026-02-07T11:38:45.625056,15.27641858,.0001772,43.0005,81.1521,279.6037,80.4615,0,U,62210,999,6594,.17343843E-2,.47866E-3,0
STARLINK-32642,2024-229V,2026-02-07T11:29:29.552928,15.27597260,.00016004,42.9979,81.1026,276.7607,83.3062,0,U,62211,999,6594,.13747355E-2,.37782E-3,0
STARLINK-32668,2024-229W,2026-02-07T02:53:21.984576,15.27619439,.0002152,42.9914,80.1124,123.3934,236.7124,0,U,62212,999,6592,.10323834E-2,.28291E-3,0
STARLINK-32669,2024-229X,2026-02-07T10:52:41.645856,15.27598666,.0001852,43.0009,81.7637,266.1735,93.8905,0,U,62213,999,6593,.11154239E-2,.30577E-3,0
STARLINK-32666,2024-229Y,2026-02-07T11:01:57.118368,15.27597410,.00013638,42.9998,81.8108,253.2425,106.8277,0,U,62214,999,6593,.11739964E-2,.32202E-3,0
STARLINK-32662,2024-229Z,2026-02-07T04:24:58.453632,15.27593892,.0001103,43.0004,83.1845,242.9489,117.1250,0,U,62215,999,6589,.11220588E-2,.30756E-3,0
STARLINK-11394 [DTC],2024-231A,2026-02-07T20:14:31.113888,15.69727259,.00009911,53.1574,248.4092,49.1460,310.9643,0,U,62218,999,6872,.20868515E-2,.260518E-2,0
STARLINK-11490 [DTC],2024-231B,2026-02-07T21:53:14.846496,15.69759907,.00021978,53.1576,248.1302,158.3100,201.8011,0,U,62219,999,6873,.12636688E-2,.155737E-2,0
STARLINK-11466 [DTC],2024-231C,2026-02-07T22:07:23.030112,15.69747846,.00012615,53.1576,248.1939,46.5645,313.5478,0,U,62220,999,6873,.1406207E-2,.173655E-2,0
STARLINK-11468 [DTC],2024-231D,2026-02-07T20:49:49.368864,15.69717226,.00007026,53.1578,248.5694,93.5042,266.6056,0,U,62221,999,6872,.16774051E-2,.207862E-2,0
STARLINK-11488 [DTC],2024-231E,2026-02-07T20:28:38.050752,15.69738975,.00007771,53.1578,248.4703,61.1392,298.9704,0,U,62222,999,6872,.13379901E-2,.164967E-2,0
STARLINK-11483 [DTC],2024-231F,2026-02-07T21:10:52.545504,15.69712342,.00026339,53.1584,247.9261,21.3127,338.8000,0,U,62223,999,6873,.15501461E-2,.191638E-2,0
STARLINK-11492 [DTC],2024-231G,2026-02-07T22:14:26.778048,15.69736875,.00008393,53.1568,248.2379,100.7943,259.3170,0,U,62224,999,6873,.11850415E-2,.145687E-2,0
STARLINK-11471 [DTC],2024-231H,2026-02-07T22:49:37.109280,15.69738558,.0000468,53.1566,247.6622,81.1864,278.9207,0,U,62225,999,6874,.10375176E-2,.1272E-2,0
STARLINK-11475 [DTC],2024-231J,2026-02-07T22:56:41.083584,15.69738339,.00013929,53.1570,247.6817,40.1080,320.0041,0,U,62226,999,6874,.19759322E-2,.246324E-2,0
STARLINK-11469 [DTC],2024-231K,2026-02-07T21:39:07.293600,15.69778437,.00011832,53.1575,248.0600,50.9724,309.1399,0,U,62227,999,6873,.17137987E-2,.213058E-2,0
STARLINK-11476 [DTC],2024-231L,2026-02-07T21:03:48.569472,15.69703965,.00010593,53.1581,247.8998,84.5130,275.6009,0,U,62228,999,6874,.17832413E-2,.221252E-2,0
STARLINK-11485 [DTC],2024-231M,2026-02-07T23:03:44.885952,15.69720469,.00011903,53.1574,247.7125,40.7750,319.3357,0,U,62229,999,6874,.15599438E-2,.192938E-2,0
STARLINK-11481 [DTC],2024-231N,2026-02-07T22:28:33.970656,15.69772269,.00014274,53.1567,248.2835,142.4495,217.6623,0,U,62230,999,6873,.10602132E-2,.130226E-2,0
STARLINK-32650,2024-231P,2026-02-07T04:09:45.298080,15.30211737,.00013398,53.1604,1.5560,92.4476,267.6678,0,U,62231,999,6709,.14410853E-2,.42582E-3,0
STARLINK-32636,2024-231Q,2026-02-07T06:20:06.182016,15.30230262,.0001387,53.1604,0.7054,87.1835,272.9324,0,U,62232,999,6711,.13768E-2,.40681E-3,0
STARLINK-32643,2024-231R,2026-02-07T06:52:44.253120,15.30240753,.0001212,53.1597,348.0616,93.9546,266.1593,0,U,62233,999,6728,.18677E-2,.55441E-3,0
STARLINK-32652,2024-231S,2026-02-07T03:45:26.285472,15.30216173,.00018003,53.1641,1.4505,77.0248,283.0954,0,U,62234,999,6708,.14020197E-2,.41417E-3,0
